GOES 9                  
1 23581U 95025A   08105.70272516 -.00000236  00000-0  10000-3 0  5390
2 23581   4.2226  75.9029 0005949 271.5385  88.5158  0.98802953 47197
SARSAT 7 (NOAA 15)      
1 25338U 98030A   08107.41453333  .00000044  00000-0  37337-4 0  4319
2 25338  98.5532 100.8517 0009949 217.9630 142.0851 14.24695633516002
GOES 11                 
1 26352U 00022A   08107.50264284  .00000075  00000-0  10000-3 0  7768
2 26352   0.2897  87.9412 0001695 222.4392 300.6046  1.00281170 29125
COSPAS 9 (NADEZHDA 6)   
1 26384U 00033A   08107.61360155  .00000075  00000-0  24043-4 0  3029
2 26384  98.4268 123.0717 0016950 105.4622 254.8448 14.64045379416531
SARSAT 8 (NOAA 16)      
1 26536U 00055A   08107.43774730  .00000287  00000-0  18025-3 0  8954
2 26536  99.1534  95.2701 0011145  42.0980 318.1054 14.12477766390058
GOES 12                 
1 26871U 01031A   08105.44496532 -.00000265  00000-0  00000+0 0  5225
2 26871   0.1780 260.5058 0004904 151.9374 235.5055  1.00261353 24704
SARSAT 9 (NOAA 17)      
1 27453U 02032A   08107.42909187  .00000234  00000-0  12054-3 0  8908
2 27453  98.5379 173.8312 0010719 288.8908  71.1126 14.23966011302017
INSAT 3A                
1 27714U 03013A   08106.84083212 -.00000272  00000-0  10000-3 0   583
2 27714   0.0522  79.9079 0004660 236.8495 283.7685  1.00271089 18417
SARSAT 10 (NOAA 18)     
1 28654U 05018A   08107.43816438 -.00000034  00000-0  52961-5 0  3970
2 28654  98.8633  49.1403 0014952 125.4341 234.8226 14.11154414149766
MSG-2                   
1 28912U 05049B   08105.92942058 -.00000017  00000-0  00000+0 0  3681
2 28912   0.6556 242.0677 0001065 187.5592 108.7573  1.00275980  8554
SARSAT 11 (METOP-A)     
1 29499U 06044A   08107.97810154  .00000136  00000-0  82146-4 0  4741
2 29499  98.7276 167.7533 0001360  63.9372 296.1929 14.21473141 77466
